start=new Date('2023-03-20T00:00:00.000Z').valueOf();
sats=[{"SEMIMAJOR_AXIS":"6925.206","MEAN_MOTION_DOT":"0.00017546","NORAD_CAT_ID":"47866","OBJECT_NAME":"STARLINK-2320","RCS_SIZE":"LARGE","CLASSIFICATION_TYPE":"U","PERIOD":"95.589","EPHEMERIS_TYPE":"0","SITE":"AFETR","COUNTRY_CODE":"US","ECCENTRICITY":"0.00014380","REF_FRAME":"TEME","GP_ID":"228441658","REV_AT_EPOCH":"11261","MEAN_ANOMALY":"274.6304","OBJECT_ID":"2021-021G","TIME_SYSTEM":"UTC","CENTER_NAME":"EARTH","PERIAPSIS":"546.075","INCLINATION":"53.0513","RA_OF_ASC_NODE":"108.3698","BSTAR":"0.00119240000000","MEAN_MOTION_DDOT":"0.0000000000000","TLE_LINE1":"1 47866U 21021G   23078.35314342  .00017546  00000-0  11924-2 0  9994","TLE_LINE2":"2 47866  53.0513 108.3698 0001438  85.4849 274.6304 15.06446642112614","OBJECT_TYPE":"PAYLOAD","MEAN_MOTION":"15.06446642","APOAPSIS":"548.066","FILE":"3865049","ELEMENT_SET_NO":"999","MEAN_ELEMENT_THEORY":"SGP4","LAUNCH_DATE":"2021-03-14","ARG_OF_PERICENTER":"85.4849","DECAY_DATE":null,"EPOCH":"2023-03-19T08:28:31.591488"},{"SITE":"AFETR","COUNTRY_CODE":"US","ECCENTRICITY":"0.00016390","SEMIMAJOR_AXIS":"6925.246","OBJECT_NAME":"STARLINK-2321","NORAD_CAT_ID":"47867","MEAN_MOTION_DOT":"0.00002562","RCS_SIZE":"LARGE","CLASSIFICATION_TYPE":"U","PERIOD":"95.590","EPHEMERIS_TYPE":"0","REF_FRAME":"TEME","REV_AT_EPOCH":"11261","GP_ID":"228475086","MEAN_ANOMALY":"273.7544","OBJECT_ID":"2021-021H","TIME_SYSTEM":"UTC","TLE_LINE2":"2 47867  53.0517  96.6121 0001639  86.3633 273.7544 15.06433587112613","OBJECT_TYPE":"PAYLOAD","MEAN_MOTION":"15.06433587","PERIAPSIS":"545.976","CENTER_NAME":"EARTH","INCLINATION":"53.0517","RA_OF_ASC_NODE":"96.6121","MEAN_MOTION_DDOT":"0.0000000000000","BSTAR":"0.00019065000000","TLE_LINE1":"1 47867U 21021H   23078.74476342  .00002562  00000-0  19065-3 0  9994","MEAN_ELEMENT_THEORY":"SGP4","LAUNCH_DATE":"2021-03-14","ARG_OF_PERICENTER":"86.3633","DECAY_DATE":null,"EPOCH":"2023-03-19T17:52:27.559488","APOAPSIS":"548.246","FILE":"3865354","ELEMENT_SET_NO":"999"},{"ECCENTRICITY":"0.00011400","SITE":"AFETR","COUNTRY_CODE":"US","PERIOD":"95.592","EPHEMERIS_TYPE":"0","RCS_SIZE":"LARGE","CLASSIFICATION_TYPE":"U","MEAN_MOTION_DOT":"-0.00002612","OBJECT_NAME":"STARLINK-2323","NORAD_CAT_ID":"47868","SEMIMAJOR_AXIS":"6925.356","TIME_SYSTEM":"UTC","MEAN_ANOMALY":"269.7299","OBJECT_ID":"2021-021J","GP_ID":"228419197","REV_AT_EPOCH":"11286","REF_FRAME":"TEME","MEAN_MOTION":"15.06397468","OBJECT_TYPE":"PAYLOAD","TLE_LINE2":"2 47868  53.0547  47.2360 0001140  90.3820 269.7299 15.06397468112860","TLE_LINE1":"1 47868U 21021J   23078.60562788 -.00002612  00000-0 -15655-3 0  9999","BSTAR":"-0.00015655000000","MEAN_MOTION_DDOT":"0.0000000000000","RA_OF_ASC_NODE":"47.2360","PERIAPSIS":"546.432","CENTER_NAME":"EARTH","INCLINATION":"53.0547","DECAY_DATE":null,"ARG_OF_PERICENTER":"90.3820","EPOCH":"2023-03-19T14:32:06.248832","MEAN_ELEMENT_THEORY":"SGP4","LAUNCH_DATE":"2021-03-14","ELEMENT_SET_NO":"999","FILE":"3864995","APOAPSIS":"548.011"},{"MEAN_MOTION_DDOT":"0.0000000000000","BSTAR":"0.00019199000000","TLE_LINE1":"1 47869U 21021K   23078.74108413  .00002581  00000-0  19199-3 0  9996","INCLINATION":"53.0541","PERIAPSIS":"545.901","CENTER_NAME":"EARTH","RA_OF_ASC_NODE":"96.6330","MEAN_MOTION":"15.06430356","TLE_LINE2":"2 47869  53.0541  96.6330 0001761  93.5864 266.5327 15.06430356112762","OBJECT_TYPE":"PAYLOAD","ELEMENT_SET_NO":"999","APOAPSIS":"548.340","FILE":"3865354","EPOCH":"2023-03-19T17:47:09.668832","ARG_OF_PERICENTER":"93.5864","DECAY_DATE":null,"MEAN_ELEMENT_THEORY":"SGP4","LAUNCH_DATE":"2021-03-14","CLASSIFICATION_TYPE":"U","RCS_SIZE":"LARGE","EPHEMERIS_TYPE":"0","PERIOD":"95.590","SEMIMAJOR_AXIS":"6925.256","MEAN_MOTION_DOT":"0.00002581","OBJECT_NAME":"STARLINK-2324","NORAD_CAT_ID":"47869","ECCENTRICITY":"0.00017610","COUNTRY_CODE":"US","SITE":"AFETR","OBJECT_ID":"2021-021K","MEAN_ANOMALY":"266.5327","TIME_SYSTEM":"UTC","REF_FRAME":"TEME","REV_AT_EPOCH":"11276","GP_ID":"228476587"},{"MEAN_ELEMENT_THEORY":"SGP4","LAUNCH_DATE":"2021-03-14","ARG_OF_PERICENTER":"94.1176","DECAY_DATE":null,"EPOCH":"2023-03-19T19:48:34.512480","APOAPSIS":"548.310","FILE":"3865354","ELEMENT_SET_NO":"999","TLE_LINE2":"2 47870  53.0522 121.2509 0001661  94.1176 266.0002 15.06417614112215","OBJECT_TYPE":"PAYLOAD","MEAN_MOTION":"15.06417614","PERIAPSIS":"546.009","CENTER_NAME":"EARTH","INCLINATION":"53.0522","RA_OF_ASC_NODE":"121.2509","BSTAR":"0.00014513000000","MEAN_MOTION_DDOT":"0.0000000000000","TLE_LINE1":"1 47870U 21021L   23078.82539945  .00001882  00000-0  14513-3 0  9993","REF_FRAME":"TEME","REV_AT_EPOCH":"11221","GP_ID":"228475337","MEAN_ANOMALY":"266.0002","OBJECT_ID":"2021-021L","TIME_SYSTEM":"UTC","SITE":"AFETR","COUNTRY_CODE":"US","ECCENTRICITY":"0.00016610","SEMIMAJOR_AXIS":"6925.295","OBJECT_NAME":"STARLINK-2326","NORAD_CAT_ID":"47870","MEAN_MOTION_DOT":"0.00001882","RCS_SIZE":"LARGE","CLASSIFICATION_TYPE":"U","PERIOD":"95.591","EPHEMERIS_TYPE":"0"},{"OBJECT_NAME":"STARLINK-2327","MEAN_MOTION_DOT":"0.00004261","NORAD_CAT_ID":"47871","SEMIMAJOR_AXIS":"6925.247","PERIOD":"95.590","EPHEMERIS_TYPE":"0","RCS_SIZE":"LARGE","CLASSIFICATION_TYPE":"U","SITE":"AFETR","COUNTRY_CODE":"US","ECCENTRICITY":"0.00015880","REV_AT_EPOCH":"11265","GP_ID":"228475587","REF_FRAME":"TEME","TIME_SYSTEM":"UTC","MEAN_ANOMALY":"281.3355","OBJECT_ID":"2021-021M","RA_OF_ASC_NODE":"96.6447","PERIAPSIS":"546.012","CENTER_NAME":"EARTH","INCLINATION":"53.0531","TLE_LINE1":"1 47871U 21021M   23078.73739011  .00004261  00000-0  30452-3 0  9994","MEAN_MOTION_DDOT":"0.0000000000000","BSTAR":"0.00030452000000","OBJECT_TYPE":"PAYLOAD","TLE_LINE2":"2 47871  53.0531  96.6447 0001588  78.7813 281.3355 15.06433195112657","MEAN_MOTION":"15.06433195","FILE":"3865354","APOAPSIS":"548.212","ELEMENT_SET_NO":"999","LAUNCH_DATE":"2021-03-14","MEAN_ELEMENT_THEORY":"SGP4","ARG_OF_PERICENTER":"78.7813","DECAY_DATE":null,"EPOCH":"2023-03-19T17:41:50.505504"},{"NORAD_CAT_ID":"47873","OBJECT_NAME":"STARLINK-2329","MEAN_MOTION_DOT":"0.00020180","SEMIMAJOR_AXIS":"6925.133","EPHEMERIS_TYPE":"0","PERIOD":"95.588","CLASSIFICATION_TYPE":"U","RCS_SIZE":"LARGE","COUNTRY_CODE":"US","SITE":"AFETR","ECCENTRICITY":"0.00016400","GP_ID":"228476339","REV_AT_EPOCH":"11265","REF_FRAME":"TEME","TIME_SYSTEM":"UTC","OBJECT_ID":"2021-021P","MEAN_ANOMALY":"275.9381","RA_OF_ASC_NODE":"96.4282","INCLINATION":"53.0536","PERIAPSIS":"545.862","CENTER_NAME":"EARTH","TLE_LINE1":"1 47873U 21021P   23078.78529845  .00020180  00000-0  13672-2 0  9995","MEAN_MOTION_DDOT":"0.0000000000000","BSTAR":"0.00136720000000","OBJECT_TYPE":"PAYLOAD","TLE_LINE2":"2 47873  53.0536  96.4282 0001640  84.1794 275.9381 15.06470299112651","MEAN_MOTION":"15.06470299","FILE":"3865354","APOAPSIS":"548.134","ELEMENT_SET_NO":"999","MEAN_ELEMENT_THEORY":"SGP4","LAUNCH_DATE":"2021-03-14","EPOCH":"2023-03-19T18:50:49.786080","DECAY_DATE":null,"ARG_OF_PERICENTER":"84.1794"},{"REF_FRAME":"TEME","GP_ID":"228476087","REV_AT_EPOCH":"11327","OBJECT_ID":"2021-021Q","MEAN_ANOMALY":"279.6148","TIME_SYSTEM":"UTC","SEMIMAJOR_AXIS":"6925.324","OBJECT_NAME":"STARLINK-2330","NORAD_CAT_ID":"47874","MEAN_MOTION_DOT":"0.00010011","CLASSIFICATION_TYPE":"U","RCS_SIZE":"LARGE","EPHEMERIS_TYPE":"0","PERIOD":"95.592","COUNTRY_CODE":"US","SITE":"AFETR","ECCENTRICITY":"0.00024600","APOAPSIS":"548.893","FILE":"3865354","ELEMENT_SET_NO":"999","MEAN_ELEMENT_THEORY":"SGP4","LAUNCH_DATE":"2021-03-14","EPOCH":"2023-03-19T15:53:43.068192","DECAY_DATE":null,"ARG_OF_PERICENTER":"80.5119","INCLINATION":"53.0544","CENTER_NAME":"EARTH","PERIAPSIS":"545.485","RA_OF_ASC_NODE":"51.9905","BSTAR":"0.00068989000000","MEAN_MOTION_DDOT":"0.0000000000000","TLE_LINE1":"1 47874U 21021Q   23078.66230403  .00010011  00000-0  68989-3 0  9996","TLE_LINE2":"2 47874  53.0544  51.9905 0002460  80.5119 279.6148 15.06407996113276","OBJECT_TYPE":"PAYLOAD","MEAN_MOTION":"15.06407996"},{"MEAN_MOTION":"15.06434600","OBJECT_TYPE":"PAYLOAD","TLE_LINE2":"2 47875  53.0518 106.4684 0001406  89.2637 270.8513 15.06434600112571","BSTAR":"0.00064280000000","MEAN_MOTION_DDOT":"0.0000000000000","TLE_LINE1":"1 47875U 21021R   23078.77701994  .00009315  00000-0  64280-3 0  9992","CENTER_NAME":"EARTH","PERIAPSIS":"546.134","INCLINATION":"53.0518","RA_OF_ASC_NODE":"106.4684","DECAY_DATE":null,"ARG_OF_PERICENTER":"89.2637","EPOCH":"2023-03-19T18:38:54.522816","LAUNCH_DATE":"2021-03-14","MEAN_ELEMENT_THEORY":"SGP4","ELEMENT_SET_NO":"999","APOAPSIS":"548.081","FILE":"3865354","ECCENTRICITY":"0.00014060","SITE":"AFETR","COUNTRY_CODE":"US","RCS_SIZE":"LARGE","CLASSIFICATION_TYPE":"U","PERIOD":"95.590","EPHEMERIS_TYPE":"0","SEMIMAJOR_AXIS":"6925.243","MEAN_MOTION_DOT":"0.00009315","OBJECT_NAME":"STARLINK-2331","NORAD_CAT_ID":"47875","MEAN_ANOMALY":"270.8513","OBJECT_ID":"2021-021R","TIME_SYSTEM":"UTC","REF_FRAME":"TEME","REV_AT_EPOCH":"11257","GP_ID":"228474837"},{"TLE_LINE1":"1 47876U 21021S   23078.76596289 -.00016849  00000-0 -11147-2 0  9996","BSTAR":"-0.00111470000000","MEAN_MOTION_DDOT":"0.0000000000000","RA_OF_ASC_NODE":"106.5178","INCLINATION":"53.0532","CENTER_NAME":"EARTH","PERIAPSIS":"545.866","MEAN_MOTION":"15.06405296","TLE_LINE2":"2 47876  53.0532 106.5178 0001922  86.0071 274.1137 15.06405296112520","OBJECT_TYPE":"PAYLOAD","ELEMENT_SET_NO":"999","FILE":"3865354","APOAPSIS":"548.528","EPOCH":"2023-03-19T18:22:59.193696","ARG_OF_PERICENTER":"86.0071","DECAY_DATE":null,"LAUNCH_DATE":"2021-03-14","MEAN_ELEMENT_THEORY":"SGP4","EPHEMERIS_TYPE":"0","PERIOD":"95.592","CLASSIFICATION_TYPE":"U","RCS_SIZE":"LARGE","OBJECT_NAME":"STARLINK-2332","NORAD_CAT_ID":"47876","MEAN_MOTION_DOT":"-0.00016849","SEMIMAJOR_AXIS":"6925.332","ECCENTRICITY":"0.00019220","COUNTRY_CODE":"US","SITE":"AFETR","TIME_SYSTEM":"UTC","OBJECT_ID":"2021-021S","MEAN_ANOMALY":"274.1137","GP_ID":"228475087","REV_AT_EPOCH":"11252","REF_FRAME":"TEME"}];
